ONEWEB-0045             
1 45151U 20008W   24139.55264915  .00000415  00000+0  11376-2 0  9991
2 45151  87.8973 172.1669 0002140  96.6228 263.5143 13.11305011210847
ONEWEB-0047             
1 45152U 20008X   24139.54470609 -.00000576  00000+0 -16863-2 0  9996
2 45152  87.8962 187.2762 0002018  97.1493 262.9864 13.10372394208714
ONEWEB-0048             
1 45153U 20008Y   24139.53972574 -.00000457  00000+0 -13466-2 0  9998
2 45153  87.8963 187.2924 0001970  95.9624 264.1728 13.10371507208329
ONEWEB-0049             
1 45154U 20008Z   24139.54138684 -.00000525  00000+0 -15402-2 0  9994
2 45154  87.8968 187.2704 0001672  83.6081 276.5236 13.10372526208548
ONEWEB-0051             
1 45155U 20008AA  24139.55101266  .00000489  00000+0  13449-2 0  9998
2 45155  87.8972 172.2086 0002247  92.2580 267.8806 13.11313691211527
ONEWEB-0052             
1 45156U 20008AB  24139.53806551 -.00000507  00000+0 -14898-2 0  9998
2 45156  87.8957 187.2446 0001608  87.4205 272.7107 13.10370599208453
ONEWEB-0053             
1 45157U 20008AC  24139.59617928  .00000361  00000+0  99776-3 0  9998
2 45157  87.8958 187.2850 0001905  94.7167 265.4178 13.10371077208439
ONEWEB-0054             
1 45158U 20008AD  24139.55466326 -.00000647  00000+0 -18910-2 0  9998
2 45158  87.8962 187.2754 0002143  95.0735 265.0637 13.10374844208541
